{
  "type": "FeatureCollection",
  "features": [
    {
      "type": "Feature",
      "properties": {
        "norad_id": 40128,
        "name": "GSAT0201 (GALILEO 5)",
        "group": "gnss",
        "lat": -48.97741628296999,
        "lon": -174.15452763254035,
        "alt_km": 21193.22655899638,
        "timestamp": "2025-12-08T23:34:04.211589+00:00",
        "meta_object_name": "GSAT0201 (GALILEO 5)",
        "meta_object_id": "2014-050A",
        "meta_epoch": "2025-12-07T12:54:32.900256",
        "meta_mean_motion": 1.85519488,
        "meta_eccentricity": 0.16474216,
        "meta_inclination": 49.0828,
        "meta_ra_of_asc_node": 281.2757,
        "meta_arg_of_pericenter": 172.085,
        "meta_mean_anomaly": 190.9173,
        "meta_ephemeris_type": 0,
        "meta_classification_type": "U",
        "meta_norad_cat_id": 40128,
        "meta_element_set_no": 999,
        "meta_rev_at_epoch": 7476,
        "meta_bstar": 0,
        "meta_mean_motion_dot": -5.9e-07,
        "meta_mean_motion_ddot": 0,
        "tle_line1": "1 40128U 14050A   25341.53788079 -.00000059  00000+0  00000+0 0  9990",
        "tle_line2": "2 40128  49.0828 281.2757 1647421 172.0850 190.9173  1.85519488 74761"
      },
      "geometry": {
        "type": "Point",
        "coordinates": [
          -174.15452763254035,
          -48.97741628296999
        ]
      }
    },
    {
      "type": "Feature",
      "properties": {
        "norad_id": 40129,
        "name": "GSAT0202 (GALILEO 6)",
        "group": "gnss",
        "lat": 39.910738751142745,
        "lon": -33.32165067006156,
        "alt_km": 22852.502132810238,
        "timestamp": "2025-12-08T23:34:04.211600+00:00",
        "meta_object_name": "GSAT0202 (GALILEO 6)",
        "meta_object_id": "2014-050B",
        "meta_epoch": "2025-12-06T04:15:08.981856",
        "meta_mean_motion": 1.85520222,
        "meta_eccentricity": 0.16479377,
        "meta_inclination": 49.1003,
        "meta_ra_of_asc_node": 280.4147,
        "meta_arg_of_pericenter": 172.7832,
        "meta_mean_anomaly": 189.9608,
        "meta_ephemeris_type": 0,
        "meta_classification_type": "U",
        "meta_norad_cat_id": 40129,
        "meta_element_set_no": 999,
        "meta_rev_at_epoch": 7690,
        "meta_bstar": 0,
        "meta_mean_motion_dot": -5.4e-07,
        "meta_mean_motion_ddot": 0,
        "tle_line1": "1 40129U 14050B   25340.17718729 -.00000054  00000+0  00000+0 0  9990",
        "tle_line2": "2 40129  49.1003 280.4147 1647937 172.7832 189.9608  1.85520222 76908"
      },
      "geometry": {
        "type": "Point",
        "coordinates": [
          -33.32165067006156,
          39.910738751142745
        ]
      }
    },
    {
      "type": "Feature",
      "properties": {
        "norad_id": 40269,
        "name": "IRNSS-1C",
        "group": "gnss",
        "lat": 5.3262391703737935,
        "lon": 154.46460669851973,
        "alt_km": 35748.05609009363,
        "timestamp": "2025-12-08T23:34:04.211612+00:00",
        "meta_object_name": "IRNSS-1C",
        "meta_object_id": "2014-061A",
        "meta_epoch": "2025-12-08T08:51:41.995584",
        "meta_mean_motion": 1.0026843,
        "meta_eccentricity": 0.00177959,
        "meta_inclination": 6.0298,
        "meta_ra_of_asc_node": 92.71,
        "meta_arg_of_pericenter": 2.4883,
        "meta_mean_anomaly": 198.0291,
        "meta_ephemeris_type": 0,
        "meta_classification_type": "U",
        "meta_norad_cat_id": 40269,
        "meta_element_set_no": 999,
        "meta_rev_at_epoch": 4077,
        "meta_bstar": 0,
        "meta_mean_motion_dot": -1.59e-06,
        "meta_mean_motion_ddot": 0,
        "tle_line1": "1 40269U 14061A   25342.36923606 -.00000159  00000+0  00000+0 0  9998",
        "tle_line2": "2 40269   6.0298  92.7100 0017795   2.4883 198.0291  1.00268430 40773"
      },
      "geometry": {
        "type": "Point",
        "coordinates": [
          154.46460669851973,
          5.3262391703737935
        ]
      }
    },
    {
      "type": "Feature",
      "properties": {
        "norad_id": 40294,
        "name": "GPS BIIF-8  (PRN 03)",
        "group": "gnss",
        "lat": 7.770453641976788,
        "lon": 43.42009436672995,
        "alt_km": 20099.627601686865,
        "timestamp": "2025-12-08T23:34:04.211626+00:00",
        "meta_object_name": "GPS BIIF-8  (PRN 03)",
        "meta_object_id": "2014-068A",
        "meta_epoch": "2025-12-08T11:17:40.854336",
        "meta_mean_motion": 2.00564487,
        "meta_eccentricity": 0.00607942,
        "meta_inclination": 56.8546,
        "meta_ra_of_asc_node": 38.3112,
        "meta_arg_of_pericenter": 69.2801,
        "meta_mean_anomaly": 291.427,
        "meta_ephemeris_type": 0,
        "meta_classification_type": "U",
        "meta_norad_cat_id": 40294,
        "meta_element_set_no": 999,
        "meta_rev_at_epoch": 8138,
        "meta_bstar": 0,
        "meta_mean_motion_dot": -7.8e-07,
        "meta_mean_motion_ddot": 0,
        "tle_line1": "1 40294U 14068A   25342.47061174 -.00000078  00000+0  00000+0 0  9998",
        "tle_line2": "2 40294  56.8546  38.3112 0060794  69.2801 291.4270  2.00564487 81386"
      },
      "geometry": {
        "type": "Point",
        "coordinates": [
          43.42009436672995,
          7.770453641976788
        ]
      }
    },
    {
      "type": "Feature",
      "properties": {
        "norad_id": 40315,
        "name": "COSMOS 2501 (702K)",
        "group": "gnss",
        "lat": 23.452858439905143,
        "lon": 4.52095858724065,
        "alt_km": 19094.911509024456,
        "timestamp": "2025-12-08T23:34:04.211639+00:00",
        "meta_object_name": "COSMOS 2501 (702K)",
        "meta_object_id": "2014-075A",
        "meta_epoch": "2025-12-07T20:13:51.362112",
        "meta_mean_motion": 2.13101338,
        "meta_eccentricity": 0.00201356,
        "meta_inclination": 63.6139,
        "meta_ra_of_asc_node": 196.9947,
        "meta_arg_of_pericenter": 204.4913,
        "meta_mean_anomaly": 155.4908,
        "meta_ephemeris_type": 0,
        "meta_classification_type": "U",
        "meta_norad_cat_id": 40315,
        "meta_element_set_no": 999,
        "meta_rev_at_epoch": 8577,
        "meta_bstar": 0,
        "meta_mean_motion_dot": 5.4e-07,
        "meta_mean_motion_ddot": 0,
        "tle_line1": "1 40315U 14075A   25341.84295558  .00000054  00000+0  00000+0 0  9998",
        "tle_line2": "2 40315  63.6139 196.9947 0020135 204.4913 155.4908  2.13101338 85773"
      },
      "geometry": {
        "type": "Point",
        "coordinates": [
          4.52095858724065,
          23.452858439905143
        ]
      }
    },
    {
      "type": "Feature",
      "properties": {
        "norad_id": 40534,
        "name": "GPS BIIF-9  (PRN 26)",
        "group": "gnss",
        "lat": -52.88590126156276,
        "lon": 130.57377141689184,
        "alt_km": 20341.784210619797,
        "timestamp": "2025-12-08T23:34:04.211665+00:00",
        "meta_object_name": "GPS BIIF-9  (PRN 26)",
        "meta_object_id": "2015-013A",
        "meta_epoch": "2025-12-08T14:24:53.320896",
        "meta_mean_motion": 2.00562777,
        "meta_eccentricity": 0.01068642,
        "meta_inclination": 53.1983,
        "meta_ra_of_asc_node": 212.0617,
        "meta_arg_of_pericenter": 38.3765,
        "meta_mean_anomaly": 322.4632,
        "meta_ephemeris_type": 0,
        "meta_classification_type": "U",
        "meta_norad_cat_id": 40534,
        "meta_element_set_no": 999,
        "meta_rev_at_epoch": 7800,
        "meta_bstar": 0,
        "meta_mean_motion_dot": 2.2e-07,
        "meta_mean_motion_ddot": 0,
        "tle_line1": "1 40534U 15013A   25342.60061714  .00000022  00000+0  00000+0 0  9999",
        "tle_line2": "2 40534  53.1983 212.0617 0106864  38.3765 322.4632  2.00562777 78006"
      },
      "geometry": {
        "type": "Point",
        "coordinates": [
          130.57377141689184,
          -52.88590126156276
        ]
      }
    },
    {
      "type": "Feature",
      "properties": {
        "norad_id": 40544,
        "name": "GSAT0203 (GALILEO 7)",
        "group": "gnss",
        "lat": -52.32000113098771,
        "lon": -135.39861713592018,
        "alt_km": 23209.529119400286,
        "timestamp": "2025-12-08T23:34:04.211677+00:00",
        "meta_object_name": "GSAT0203 (GALILEO 7)",
        "meta_object_id": "2015-017A",
        "meta_epoch": "2025-12-07T23:40:17.785344",
        "meta_mean_motion": 1.70475803,
        "meta_eccentricity": 0.00065197,
        "meta_inclination": 56.8473,
        "meta_ra_of_asc_node": 346.8097,
        "meta_arg_of_pericenter": 270.7442,
        "meta_mean_anomaly": 89.1988,
        "meta_ephemeris_type": 0,
        "meta_classification_type": "U",
        "meta_norad_cat_id": 40544,
        "meta_element_set_no": 999,
        "meta_rev_at_epoch": 6594,
        "meta_bstar": 0,
        "meta_mean_motion_dot": -8.6e-07,
        "meta_mean_motion_ddot": 0,
        "tle_line1": "1 40544U 15017A   25341.98631696 -.00000086  00000+0  00000+0 0  9997",
        "tle_line2": "2 40544  56.8473 346.8097 0006519 270.7442  89.1988  1.70475803 65948"
      },
      "geometry": {
        "type": "Point",
        "coordinates": [
          -135.39861713592018,
          -52.32000113098771
        ]
      }
    }
  ]
}